{
  "type": "FeatureCollection",
  "features": [
    {
      "type": "Feature",
      "properties": {
        "norad_id": 33376,
        "name": "GALAXY 19 (G-19)",
        "group": "intelsat",
        "lat": -0.03662706599676335,
        "lon": -124.16380651318816,
        "alt_km": 35773.93232305279,
        "timestamp": "2025-12-09T16:56:36.247964+00:00",
        "meta_object_name": "GALAXY 19 (G-19)",
        "meta_object_id": "2008-045A",
        "meta_epoch": "2025-12-09T11:48:22.809888",
        "meta_mean_motion": 1.00274881,
        "meta_eccentricity": 0.0002943,
        "meta_inclination": 0.0185,
        "meta_ra_of_asc_node": 316.3922,
        "meta_arg_of_pericenter": 304.4394,
        "meta_mean_anomaly": 257.7529,
        "meta_ephemeris_type": 0,
        "meta_classification_type": "U",
        "meta_norad_cat_id": 33376,
        "meta_element_set_no": 999,
        "meta_rev_at_epoch": 6300,
        "meta_bstar": 0,
        "meta_mean_motion_dot": -1.37e-06,
        "meta_mean_motion_ddot": 0,
        "tle_line1": "1 33376U 08045A   25343.49193067 -.00000137  00000+0  00000+0 0  9995",
        "tle_line2": "2 33376   0.0185 316.3922 0002943 304.4394 257.7529  1.00274881 63006"
      },
      "geometry": {
        "type": "Point",
        "coordinates": [
          -124.16380651318816,
          -0.03662706599676335
        ]
      }
    },
    {
      "type": "Feature",
      "properties": {
        "norad_id": 35493,
        "name": "FM-5",
        "group": "intelsat",
        "lat": -0.02824407572461301,
        "lon": -113.29283566621642,
        "alt_km": 35785.506751139976,
        "timestamp": "2025-12-09T16:56:36.247976+00:00",
        "meta_object_name": "FM-5",
        "meta_object_id": "2009-034A",
        "meta_epoch": "2025-12-09T12:27:37.558944",
        "meta_mean_motion": 1.00270693,
        "meta_eccentricity": 6.25e-05,
        "meta_inclination": 0.0203,
        "meta_ra_of_asc_node": 288.1902,
        "meta_arg_of_pericenter": 248.5035,
        "meta_mean_anomaly": 2.5822,
        "meta_ephemeris_type": 0,
        "meta_classification_type": "U",
        "meta_norad_cat_id": 35493,
        "meta_element_set_no": 999,
        "meta_rev_at_epoch": 4474,
        "meta_bstar": 0,
        "meta_mean_motion_dot": -1.98e-06,
        "meta_mean_motion_ddot": 0,
        "tle_line1": "1 35493U 09034A   25343.51918471 -.00000198  00000+0  00000+0 0  9990",
        "tle_line2": "2 35493   0.0203 288.1902 0000625 248.5035   2.5822  1.00270693 44747"
      },
      "geometry": {
        "type": "Point",
        "coordinates": [
          -113.29283566621642,
          -0.02824407572461301
        ]
      }
    },
    {
      "type": "Feature",
      "properties": {
        "norad_id": 36097,
        "name": "INTELSAT 14 (IS-14)",
        "group": "intelsat",
        "lat": -0.02555005195705134,
        "lon": -72.14239061252138,
        "alt_km": 35776.03735101552,
        "timestamp": "2025-12-09T16:56:36.247988+00:00",
        "meta_object_name": "INTELSAT 14 (IS-14)",
        "meta_object_id": "2009-064A",
        "meta_epoch": "2025-12-09T09:56:06.089568",
        "meta_mean_motion": 1.00270397,
        "meta_eccentricity": 0.0002672,
        "meta_inclination": 0.0102,
        "meta_ra_of_asc_node": 346.8788,
        "meta_arg_of_pericenter": 278.7591,
        "meta_mean_anomaly": 276.7994,
        "meta_ephemeris_type": 0,
        "meta_classification_type": "U",
        "meta_norad_cat_id": 36097,
        "meta_element_set_no": 999,
        "meta_rev_at_epoch": 5870,
        "meta_bstar": 0,
        "meta_mean_motion_dot": -2.71e-06,
        "meta_mean_motion_ddot": 0,
        "tle_line1": "1 36097U 09064A   25343.41395937 -.00000271  00000+0  00000+0 0  9991",
        "tle_line2": "2 36097   0.0102 346.8788 0002672 278.7591 276.7994  1.00270397 58703"
      },
      "geometry": {
        "type": "Point",
        "coordinates": [
          -72.14239061252138,
          -0.02555005195705134
        ]
      }
    },
    {
      "type": "Feature",
      "properties": {
        "norad_id": 36106,
        "name": "INTELSAT 15 (IS-15)",
        "group": "intelsat",
        "lat": 0.03610498585179279,
        "lon": 58.00272830272534,
        "alt_km": 35795.562884834835,
        "timestamp": "2025-12-09T16:56:36.248000+00:00",
        "meta_object_name": "INTELSAT 15 (IS-15)",
        "meta_object_id": "2009-067A",
        "meta_epoch": "2025-12-09T10:33:17.526816",
        "meta_mean_motion": 1.00270891,
        "meta_eccentricity": 0.0002479,
        "meta_inclination": 0.0286,
        "meta_ra_of_asc_node": 285.8773,
        "meta_arg_of_pericenter": 340.7496,
        "meta_mean_anomaly": 55.276,
        "meta_ephemeris_type": 0,
        "meta_classification_type": "U",
        "meta_norad_cat_id": 36106,
        "meta_element_set_no": 999,
        "meta_rev_at_epoch": 3932,
        "meta_bstar": 0,
        "meta_mean_motion_dot": -1.83e-06,
        "meta_mean_motion_ddot": 0,
        "tle_line1": "1 36106U 09067A   25343.43978619 -.00000183  00000+0  00000+0 0  9993",
        "tle_line2": "2 36106   0.0286 285.8773 0002479 340.7496  55.2760  1.00270891 39329"
      },
      "geometry": {
        "type": "Point",
        "coordinates": [
          58.00272830272534,
          0.03610498585179279
        ]
      }
    },
    {
      "type": "Feature",
      "properties": {
        "norad_id": 36131,
        "name": "DIRECTV 12",
        "group": "intelsat",
        "lat": 0.006650949450731383,
        "lon": -129.88449504360293,
        "alt_km": 35786.6713819205,
        "timestamp": "2025-12-09T16:56:36.248012+00:00",
        "meta_object_name": "DIRECTV 12",
        "meta_object_id": "2009-075A",
        "meta_epoch": "2025-12-09T10:42:05.900832",
        "meta_mean_motion": 1.00272635,
        "meta_eccentricity": 5.42e-05,
        "meta_inclination": 0.0402,
        "meta_ra_of_asc_node": 141.0164,
        "meta_arg_of_pericenter": 200.367,
        "meta_mean_anomaly": 154.8575,
        "meta_ephemeris_type": 0,
        "meta_classification_type": "U",
        "meta_norad_cat_id": 36131,
        "meta_element_set_no": 999,
        "meta_rev_at_epoch": 4465,
        "meta_bstar": 0,
        "meta_mean_motion_dot": -1.01e-06,
        "meta_mean_motion_ddot": 0,
        "tle_line1": "1 36131U 09075A   25343.44590163 -.00000101  00000+0  00000+0 0  9995",
        "tle_line2": "2 36131   0.0402 141.0164 0000542 200.3670 154.8575  1.00272635 44658"
      },
      "geometry": {
        "type": "Point",
        "coordinates": [
          -129.88449504360293,
          0.006650949450731383
        ]
      }
    },
    {
      "type": "Feature",
      "properties": {
        "norad_id": 36397,
        "name": "INTELSAT 16 (IS-16)",
        "group": "intelsat",
        "lat": -0.02901998939118295,
        "lon": -103.36423018621645,
        "alt_km": 35776.9061443943,
        "timestamp": "2025-12-09T16:56:36.248024+00:00",
        "meta_object_name": "INTELSAT 16 (IS-16)",
        "meta_object_id": "2010-006A",
        "meta_epoch": "2025-12-09T12:32:17.671200",
        "meta_mean_motion": 1.00270281,
        "meta_eccentricity": 0.0002284,
        "meta_inclination": 0.0146,
        "meta_ra_of_asc_node": 310.5057,
        "meta_arg_of_pericenter": 312.0313,
        "meta_mean_anomaly": 287.8475,
        "meta_ephemeris_type": 0,
        "meta_classification_type": "U",
        "meta_norad_cat_id": 36397,
        "meta_element_set_no": 999,
        "meta_rev_at_epoch": 5775,
        "meta_bstar": 0,
        "meta_mean_motion_dot": -2.42e-06,
        "meta_mean_motion_ddot": 0,
        "tle_line1": "1 36397U 10006A   25343.52242675 -.00000242  00000+0  00000+0 0  9992",
        "tle_line2": "2 36397   0.0146 310.5057 0002284 312.0313 287.8475  1.00270281 57757"
      },
      "geometry": {
        "type": "Point",
        "coordinates": [
          -103.36423018621645,
          -0.02901998939118295
        ]
      }
    },
    {
      "type": "Feature",
      "properties": {
        "norad_id": 37185,
        "name": "XM-5",
        "group": "intelsat",
        "lat": -0.06579012889626251,
        "lon": -142.33915151575835,
        "alt_km": 35784.44260002329,
        "timestamp": "2025-12-09T16:56:36.248036+00:00",
        "meta_object_name": "XM-5",
        "meta_object_id": "2010-053A",
        "meta_epoch": "2025-12-09T10:03:18.479232",
        "meta_mean_motion": 1.00268417,
        "meta_eccentricity": 0.0001533,
        "meta_inclination": 0.064,
        "meta_ra_of_asc_node": 272.6303,
        "meta_arg_of_pericenter": 238.8174,
        "meta_mean_anomaly": 322.597,
        "meta_ephemeris_type": 0,
        "meta_classification_type": "U",
        "meta_norad_cat_id": 37185,
        "meta_element_set_no": 999,
        "meta_rev_at_epoch": 5558,
        "meta_bstar": 0,
        "meta_mean_motion_dot": -2e-07,
        "meta_mean_motion_ddot": 0,
        "tle_line1": "1 37185U 10053A   25343.41896388 -.00000020  00000+0  00000+0 0  9998",
        "tle_line2": "2 37185   0.0640 272.6303 0001533 238.8174 322.5970  1.00268417 55584"
      },
      "geometry": {
        "type": "Point",
        "coordinates": [
          -142.33915151575835,
          -0.06579012889626251
        ]
      }
    }
  ]
}